{"type":"FeatureCollection","features":[{"type":"Feature","id":2,"geometry":{"type":"Polygon","coordinates":[[[-76.626228897692911,39.265800853271969],[-76.627538664733365,39.266256373999944],[-76.627522786112394,39.266283962590983],[-76.628858386005462,39.266749079230152],[-76.628929462507372,39.266681476900857],[-76.6289945562295,39.266610326147344],[-76.629053375219357,39.266535947577275],[-76.629105656270582,39.266458675013411],[-76.629584408909665,39.265701622492678],[-76.630817405925924,39.263661031038772],[-76.634276030262583,39.264967349863909],[-76.634388687084041,39.265002183289752],[-76.634503781933191,39.265031810188411],[-76.634620916856349,39.265056128328055],[-76.634739688509953,39.265075054949811],[-76.634859685465599,39.265088522594638],[-76.634980493599954,39.26509648605829],[-76.6351016942981,39.265098917522664],[-76.635731560635975,39.265108770655495],[-76.635813905604806,39.265108660071178],[-76.635895749313704,39.265101609103482],[-76.635976127870379,39.265087700514776],[-76.636054090857243,39.265067100525208],[-76.636128721992748,39.265040049076283],[-76.636199139131236,39.265006866785946],[-76.636264513127728,39.2649679459076],[-76.636324071431062,39.264923743375689],[-76.636377114253662,39.264874780806068],[-76.636423013673095,39.264821636150621],[-76.63646123070022,39.264764936047492],[-76.636491311685816,39.26470534886618],[-76.636512905388628,39.26464357775339],[-76.636525755788767,39.264580350896097],[-76.636529710172653,39.264516413175983],[-76.636524722726179,39.26445251990986],[-76.636510852738198,39.264389422939814],[-76.636488262803752,39.264327867851129],[-76.636457221519095,39.264268578670844],[-76.636424936067797,39.264218961866355],[-76.636387022671244,39.264171812689639],[-76.636343793044816,39.264127513675433],[-76.636295598429825,39.264086427189312],[-76.636025672653247,39.26389077675956],[-76.63595048815553,39.26382514136214],[-76.635882226973735,39.263755082445307],[-76.635821318502522,39.263681040255527],[-76.635768144525898,39.263603480774421],[-76.635723041013804,39.263522891545996],[-76.635686289138917,39.263439778199576],[-76.635658120666534,39.263354663754392],[-76.635638712564841,39.263268081664741],[-76.635628187004642,39.263180577211337],[-76.635626608664694,39.263092699155017],[-76.635633989223066,39.263004999737177],[-76.63584851140449,39.261050089105403],[-76.635853468308227,39.261019177253488],[-76.63586492901463,39.260989326086047],[-76.635882578215018,39.260961357732697],[-76.635905930819135,39.26093604285434],[-76.635934344531563,39.260914075603125],[-76.63596703781802,39.260896062493742],[-76.636003111464888,39.260882497363184],[-76.636104608515581,39.260853644934535],[-76.636203808574081,39.260820313207532],[-76.636300384653651,39.260782612071388],[-76.636394018750664,39.260740663934463],[-76.636350737920267,39.260595735049762],[-76.636281858697544,39.26060816719545],[-76.636261799317253,39.260614690002114],[-76.636240634110848,39.260618566265599],[-76.636218938000098,39.260619690263738],[-76.636197299381536,39.26061802930608],[-76.636176303956731,39.260613629993891],[-76.636156523054154,39.260606611960156],[-76.636138491171465,39.260597165782947],[-76.636122697890443,39.260585546725956],[-76.636109571707522,39.260572069869369],[-76.636099469253836,39.260557101068329],[-76.636092662718923,39.26054104651962],[-76.636089338952388,39.260524341633271],[-76.636089586887394,39.260507438512811],[-76.636210440835825,39.259558045136068],[-76.636227011159562,39.259476894117256],[-76.636250517375601,39.259396784251187],[-76.636280855279367,39.259318073057266],[-76.636317886530335,39.25924111457887],[-76.636361448533407,39.259166251036078],[-76.636977404459103,39.258132296029984],[-76.636877354594333,39.258091828563636],[-76.63674406167415,39.25826299106172],[-76.636721992762574,39.258282907222316],[-76.636696103316098,39.258299816443675],[-76.636667060782955,39.258313280521378],[-76.636635618849695,39.258322951674181],[-76.636602590491648,39.258328580195439],[-76.636568827311692,39.258330020017318],[-76.63653520426891,39.258327234275001],[-76.63650279035852,39.258320735600265],[-76.636472084145481,39.258310368880892],[-76.636443849197789,39.258296387996772],[-76.636418781709779,39.258279140033615],[-76.636397500620703,39.258259051371418],[-76.636380533241621,39.258236617251448],[-76.636368297289138,39.258212393429702],[-76.636361096393813,39.258186978092461],[-76.636359107523788,39.25816099864052],[-76.636378200316827,39.257401124278381],[-76.636470707028153,39.256096488975643],[-76.636488057089551,39.255959723668234],[-76.636512257703302,39.255823588995106],[-76.636543270241859,39.255688290855183],[-76.636596838578882,39.255523944456925],[-76.636659004691481,39.25536143682811],[-76.63672966437511,39.255201041351263],[-76.636808699052111,39.255043026541877],[-76.636895976670161,39.254887655353102],[-76.636991350803882,39.254735188653022],[-76.63709466245146,39.254585881051447],[-76.637205739136334,39.254439981595056],[-76.637324394008971,39.254297733767316],[-76.637450430338248,39.254159377574929],[-76.637583636121846,39.254025143287471],[-76.637377849158256,39.253785056971182],[-76.637252094899949,39.253897270097589],[-76.637132229098313,39.254013312371747],[-76.637018443094547,39.25413299804729],[-76.636910920144928,39.254256133726969],[-76.636809833624326,39.254382523231939],[-76.636715345229476,39.254511962037078],[-76.636627608572311,39.254644240749016],[-76.636546762891683,39.254779148584454],[-76.63647293934163,39.254916467805565],[-76.636396437913717,39.255074077366274],[-76.636328234224081,39.255233972999434],[-76.636268441460473,39.25539589105896],[-76.636217158437518,39.255559563031568],[-76.636174469596909,39.255724719710955],[-76.636140445905511,39.255891089110811],[-76.635917949379333,39.257476208812051],[-76.635874947924989,39.257880309350341],[-76.635827220433939,39.258284088989917],[-76.635774775889331,39.258687515044777],[-76.635754620389307,39.258803239865898],[-76.635728624941621,39.258918259197799],[-76.635696829072145,39.259032394285398],[-76.635659283086511,39.259145469156756],[-76.635550551902838,39.259446043476018],[-76.635535468290911,39.259477675920785],[-76.635513645517705,39.259506836350845],[-76.635485728573627,39.259532665064341],[-76.635452539417145,39.259554399042308],[-76.635415057211915,39.259571399770081],[-76.635374386885729,39.259583165061478],[-76.635331726791193,39.25958934853336],[-76.635288334569722,39.259589766561113],[-76.635245490320557,39.259584407320368],[-76.635204456176695,39.259573430091578],[-76.635166443067135,39.259557157609258],[-76.635102239575474,39.259523055287204],[-76.635040645689699,39.259486160296781],[-76.6349818590392,39.259446592268958],[-76.634376427775365,39.25906509668625],[-76.6342574764587,39.258984701865685],[-76.634144313885727,39.258899406034153],[-76.634037273331415,39.258809460966845],[-76.633936671901068,39.258715130264136],[-76.633842805140389,39.258616694915766],[-76.633544112613478,39.258224576289479],[-76.633455785763175,39.25812306027656],[-76.633361327012736,39.258024937102981],[-76.633260949262876,39.257930431452095],[-76.633154884278966,39.257839759661124],[-76.633043371911171,39.257753126938645],[-76.632930111421828,39.257897085119318],[-76.633153786537704,39.258069893808432],[-76.63311383576206,39.258156144968325],[-76.633095920660352,39.258182200934499],[-76.633072885161511,39.25820570068106],[-76.633045322153663,39.258226041153861],[-76.633013938610887,39.258242702767149],[-76.632979537627079,39.25825525705433],[-76.632942999551219,39.258263383361388],[-76.632887430666059,39.258277991653124],[-76.632834645659955,39.258297886942479],[-76.632785476372874,39.258322757611197],[-76.63274069176272,39.258352211354882],[-76.632700996108625,39.258385787703389],[-76.632667011943113,39.258422959412307],[-76.632637512167506,39.258458271856732],[-76.632604133466472,39.258491430120195],[-76.632567133656565,39.258522178933575],[-76.632176806682452,39.258883671759229],[-76.632100534324948,39.258957181348698],[-76.632066000390481,39.258988790364988],[-76.632026023563697,39.259016251051484],[-76.631981422209847,39.259039001401355],[-76.631933105423983,39.259056579568046],[-76.631882059556276,39.259068625256006],[-76.631829325754154,39.259074892935899],[-76.631775981995943,39.259075254626445],[-76.631724101593335,39.259069290905771],[-76.631673721377254,39.259057965816908],[-76.631625752239387,39.259041485242733],[-76.631581064647293,39.259020147574553],[-76.631540466186323,39.258994337452343],[-76.631523995575606,39.258983365695677],[-76.631505519026831,39.258974535565656],[-76.63148549288421,39.258968061991141],[-76.631464408526156,39.258964106342574],[-76.631442787873908,39.258962765998746],[-76.631140631443245,39.258962909979637],[-76.631074708576136,39.258966378736417],[-76.631009728940072,39.258975686021401],[-76.630946543239602,39.258990708022665],[-76.630903591192606,39.258999480419213],[-76.63085934826654,39.259002467151483],[-76.630815094560703,39.258999581275333],[-76.630691597768717,39.25898083942306],[-76.630569545467679,39.258957054756777],[-76.63044927811913,39.258928295436249],[-76.630331130794644,39.258894640053683],[-76.629839946370339,39.259394203044593],[-76.628272853323494,39.258996243285367],[-76.626460285743804,39.265021522357387],[-76.627616740907968,39.265040623558917],[-76.627562236526416,39.265132792486042],[-76.626430821900797,39.265119456994448],[-76.626228897692911,39.265800853271969]],[[-76.631446194285459,39.262954038988589],[-76.631516811748256,39.262881696501388],[-76.631580309164136,39.262805469450875],[-76.631636335291773,39.262725781397663],[-76.631684577517461,39.262643073987242],[-76.633896971755391,39.258982149857438],[-76.634026542057029,39.259117797071092],[-76.634162767078294,39.259249443178689],[-76.634305445596553,39.259376893447048],[-76.634454360219522,39.259499953839402],[-76.634609290859927,39.259618442143868],[-76.634770004854147,39.259732180322281],[-76.634936260555349,39.25984099729218],[-76.635107810028543,39.259944730317784],[-76.635179404858377,39.259981590289399],[-76.635245527151483,39.260024183654735],[-76.635305418729814,39.260072022823586],[-76.635358397771995,39.260124561084339],[-76.635403855220318,39.260181197473045],[-76.63544127274686,39.260241283729968],[-76.635470220956876,39.26030413264624],[-76.635490371067007,39.260369026411027],[-76.635501490413588,39.260435221480904],[-76.635503452334191,39.260501961795178],[-76.635496235269201,39.260568482254037],[-76.63526372612084,39.262589897732148],[-76.635254216555225,39.262759925979573],[-76.63523730666833,39.262929606749829],[-76.635213014426398,39.263098743909133],[-76.635181368575601,39.263267145498709],[-76.635142405946766,39.26343461747507],[-76.635096169659093,39.263600966492035],[-76.635042714509794,39.263766004769288],[-76.634982100686003,39.263929540355136],[-76.634972602798499,39.263952561054985],[-76.634958406722063,39.263974071099305],[-76.634939891545756,39.26399349530287],[-76.634917553139573,39.264010314121577],[-76.634891987086604,39.264024079649104],[-76.634863877004719,39.264034423267255],[-76.634833976580495,39.264041067469286],[-76.63480308172123,39.264043836987817],[-76.63477201977534,39.264042656012826],[-76.634741619887819,39.26403755584203],[-76.634712695932294,39.264028673489968],[-76.633514324478668,39.263575303418833],[-76.633455020398557,39.263672812336061],[-76.631446194285459,39.262954038988589]],[[-76.635041006812443,39.264983509810342],[-76.634933595253912,39.264984957841513],[-76.634826319341016,39.264980524723889],[-76.63471971087634,39.264970233407873],[-76.634614299865973,39.26495413466241],[-76.63451060643439,39.26493230916158],[-76.634409146214637,39.264904864007107],[-76.634310423161537,39.264871935510705],[-76.63088037243746,39.263575909907097],[-76.630966960149394,39.263456687568159],[-76.631060433447942,39.263340649796028],[-76.631160598297072,39.263228035864607],[-76.631267247185932,39.263119080180132],[-76.631380159128923,39.263014008108023],[-76.634606823187852,39.264155580223154],[-76.634686608856441,39.26418737607365],[-76.634761801438998,39.264225336193881],[-76.634831616706236,39.26426906691691],[-76.634895322531236,39.26431810989294],[-76.634952256855627,39.264371951827343],[-76.635001821401431,39.264430030740463],[-76.635043498739051,39.264491740141494],[-76.635076855880484,39.26455643459289],[-76.63510154158449,39.264623438752245],[-76.635117298034572,39.264692050850428],[-76.635123960839039,39.264761555906418],[-76.635109787220472,39.26493209981588],[-76.635108098387747,39.264941041866521],[-76.635104544652492,39.264949647293818],[-76.635099222134428,39.264957683800787],[-76.635092278157288,39.264964931609491],[-76.635083896875685,39.26497119667566],[-76.635074307360014,39.26497630721105],[-76.635063768325097,39.264980125506845],[-76.635052568130149,39.264982548629213],[-76.635041006812443,39.264983509810342]]]},"properties":{"OBJECTID":2,"sitename":"Westport Waterfront","sitedesc":"Funding provided for infrastructure improvements for a coordinated State effort of making the zones the focus of BRAC growth. Area includes the Westport Waterfront Development and the Westport MD-295 ramp improvements.","streetaddr":"Not Available","city":"Baltimore","county":"Baltimore City","state":"MD","zip":"21230","phonenumbe":"Not Available","tollfree_n":"Not Available","website":"http://www.choosemaryland.org/businessresources/pages/BRACRevitalization.aspx","latitude":"39.260704","longitude":"-76.632342","extent":"42.9 Acres","Shape.STArea()":658726.80534366996,"Shape.STLength()":9608.5527072594359}},{"type":"Feature","id":4,"geometry":{"type":"Polygon","coordinates":[[[-76.8569376910676,39.092092887407112],[-76.856592640082127,39.091898281177713],[-76.856718994415047,39.091784841506232],[-76.856679265523297,39.091591047382437],[-76.856179253354682,39.09133922103937],[-76.855936221341082,39.091385094613017],[-76.848033267476225,39.093623341542667],[-76.846081430484773,39.097456609912584],[-76.845086151048875,39.096806458974335],[-76.844947224793543,39.096691096742731],[-76.844802253774688,39.096580344695617],[-76.844651487723922,39.096474393181843],[-76.844495189847649,39.096373426973237],[-76.844333631437053,39.096277621081114],[-76.84416709276654,39.096187141453512],[-76.843995863093596,39.096102145671928],[-76.843820238862293,39.096022780859883],[-76.843640524601497,39.095949184379741],[-76.843457034721567,39.095881484529762],[-76.843270083632831,39.09581979845251],[-76.843079999220407,39.095764234226039],[-76.842887109369329,39.095714885983611],[-76.842691749151243,39.095671842279913],[-76.842494259027603,39.095635175632843],[-76.841713773962653,39.095507752384854],[-76.837659795663043,39.100162141986267],[-76.83774102043273,39.100375156849005],[-76.837758549258879,39.100568856422377],[-76.837687828489805,39.100685168768351],[-76.837760080886412,39.100870342339753],[-76.837880330268661,39.100974937614318],[-76.838048443685892,39.101018547631199],[-76.83891551017453,39.101266487112731],[-76.839329158311727,39.101783105473679],[-76.839802733959829,39.102614142476078],[-76.840463731413891,39.103196095311397],[-76.840751457307817,39.103331785532895],[-76.841165253667043,39.103929230969747],[-76.841176330792791,39.104415753149219],[-76.841093324663902,39.105496425033124],[-76.841337351112529,39.105696843612094],[-76.841851091335315,39.105840997106775],[-76.842348462456982,39.106078368712481],[-76.842919674196708,39.106403073511103],[-76.843355722723828,39.106888935224077],[-76.843790506423005,39.107030811758371],[-76.844217282539759,39.107320461811703],[-76.844725561005617,39.107551598813103],[-76.845132255284199,39.107567862607482],[-76.845633328363164,39.107758910328137],[-76.845885560023589,39.107892903496179],[-76.846205237195534,39.10795372720824],[-76.847748851874115,39.1059366875335],[-76.847886997493447,39.105804041581791],[-76.848210967714152,39.105313124124343],[-76.847073191219692,39.10478572748174],[-76.847377366164764,39.104495737985935],[-76.845307998093134,39.103158842130924],[-76.846096559012466,39.102406569749554],[-76.846209676669673,39.102481855557599],[-76.846868384318057,39.10186664231459],[-76.847398216960826,39.102206220589416],[-76.84942651046444,39.100269853095931],[-76.850569989464319,39.099222768176418],[-76.850539921953455,39.099202659111597],[-76.850838029677121,39.098923282991151],[-76.850921190316214,39.098796120143611],[-76.850755768251588,39.09866442351634],[-76.851322201852327,39.098169873672312],[-76.851360957868621,39.098142563417134],[-76.851404616889752,39.098120193177301],[-76.851452153937956,39.098103287913709],[-76.851502447915777,39.098092245704869],[-76.851554317538586,39.098087326591632],[-76.851550532936287,39.097569347484779],[-76.851839152653923,39.097286148632222],[-76.851994195583771,39.097393394249693],[-76.852178572999193,39.097511772636231],[-76.852522625058072,39.097698175961732],[-76.852701462563147,39.097787204262616],[-76.852879399956322,39.097875897816571],[-76.854428010166174,39.098649815484968],[-76.854448462110255,39.098656397256093],[-76.854467375240247,39.098665345842527],[-76.854484303093457,39.098676450007751],[-76.854498844122958,39.098689446229081],[-76.854510653375684,39.098704027760654],[-76.854519451475568,39.098719847422288],[-76.854525030911816,39.0987365315425],[-76.854527259632022,39.09875368553557],[-76.854646344797672,39.098666641142664],[-76.855949767935584,39.09758010812358],[-76.857736888039895,39.096001971616971],[-76.85768964923237,39.095976922852188],[-76.860303911999168,39.093683789228265],[-76.860413981672622,39.093591872833919],[-76.860517357100562,39.093495352019922],[-76.860613721177728,39.093394521682832],[-76.86070278015498,39.093289691361278],[-76.860784259147906,39.093181182447516],[-76.860857910221412,39.093069326792978],[-76.860923505203459,39.092954466709067],[-76.860980847362995,39.092836954966849],[-76.861029757935256,39.092717151311575],[-76.861070089596566,39.09259542106826],[-76.861101715684455,39.092472140022565],[-76.861124541875824,39.092347683962501],[-76.861129049621937,39.092335607586882],[-76.86113093608401,39.09232311636908],[-76.861130150058159,39.092310554730879],[-76.861126712205561,39.092298266396902],[-76.861120718645978,39.092286588817345],[-76.861112331974496,39.092275844103746],[-76.861101783956428,39.092266324387936],[-76.861089362951006,39.092258294610552],[-76.86107541211463,39.092251972301881],[-76.861060311434699,39.092247532462387],[-76.861044477729507,39.092245096407119],[-76.861028345783623,39.09224473176576],[-76.8610123575682,39.092246447602037],[-76.8609969523594,39.092250197899965],[-76.860683516682045,39.092229041727066],[-76.860369418047995,39.092215068219147],[-76.860054928646804,39.092208289930369],[-76.859740319769685,39.092208711743233],[-76.859425861809541,39.092216334354873],[-76.859211530070965,39.092220971507132],[-76.858997123772212,39.092219509455127],[-76.858782929475865,39.092211950290043],[-76.858569231049543,39.092198303073722],[-76.858431499553561,39.092181027565431],[-76.858294624152023,39.092160020575058],[-76.857490255578639,39.092001957587755],[-76.857408237596559,39.091995034258083],[-76.857325740812456,39.091994869018492],[-76.857243677914624,39.092001464657884],[-76.857162960693088,39.092014746572524],[-76.857084482073233,39.092034570435516],[-76.857009114319212,39.092060713133243],[-76.8569376910676,39.092092887407112]]]},"properties":{"OBJECTID":4,"sitename":"City of Laurel","sitedesc":"Funding provided for infrastructure improvements for a coordinated State effort of making the zones the focus of BRAC growth. Area includes redevelopment of Laurel Commons Town Center, Hawthorne Place, a section of Rt 1 and Main St near the MARC Station.","streetaddr":"Not Available","city":"Laurel","county":"Prince George's","state":"MD","zip":"20707","phonenumbe":"Not Available","tollfree_n":"Not Available","website":"http://www.choosemaryland.org/businessresources/pages/BRACRevitalization.aspx","latitude":"39.098685","longitude":"-76.847049","extent":"356 Acres","Shape.STArea()":2394840.2274996298,"Shape.STLength()":8966.1690402440036}},{"type":"Feature","id":5,"geometry":{"type":"Polygon","coordinates":[[[-76.9103912233969,38.807251829589795],[-76.909887889258385,38.807671878826227],[-76.909097093330615,38.808021370671653],[-76.908621060790196,38.808208878544946],[-76.909139803730795,38.808971958061093],[-76.908417968772454,38.809378454974869],[-76.909079353400386,38.810405563190685],[-76.909268810788745,38.810630194895957],[-76.909532114185041,38.810949650637077],[-76.90992388385348,38.811441621926136],[-76.910168978398985,38.811667056037287],[-76.910517972988558,38.811932409661296],[-76.910906675808604,38.812298001624278],[-76.911331016592641,38.812642778895601],[-76.91194365414168,38.813255723345605],[-76.913136350039366,38.814334611198333],[-76.914556247838675,38.815587854286633],[-76.916016282364907,38.816835998761363],[-76.917448541880873,38.818110781062664],[-76.918807938145804,38.819394999702865],[-76.91952405981894,38.820079903762085],[-76.920013453900893,38.820545400268699],[-76.919963580334638,38.820700832918433],[-76.919847772223164,38.820872638366232],[-76.919740467564154,38.820971551100563],[-76.919556878869528,38.821082436614731],[-76.919391703841612,38.821143169026286],[-76.919148630505532,38.821184219277981],[-76.91885988502375,38.821169410451262],[-76.918643324564925,38.821137325699191],[-76.918079321805379,38.821009060034356],[-76.917874557124577,38.820945324300304],[-76.917453219408543,38.821042695088259],[-76.917192114189731,38.820682453862744],[-76.917106584693229,38.820586371777559],[-76.917018911816442,38.820491471676732],[-76.916946871422226,38.820415992716022],[-76.91675033530943,38.820220712475496],[-76.916348320355169,38.82000244786267],[-76.916262456685345,38.819955829964201],[-76.915060215289486,38.820527817647104],[-76.914219218808697,38.82091894561519],[-76.915975532088666,38.823049308262149],[-76.915568337448477,38.823165876232544],[-76.914955776256235,38.823244625536731],[-76.914285835175221,38.823336087046272],[-76.913606093474442,38.823428941861565],[-76.913057109648136,38.823512366640685],[-76.91259106906864,38.823580576378433],[-76.912230416143302,38.823577303135565],[-76.911883455339535,38.823501362738604],[-76.911481809592857,38.82329649654816],[-76.911273069866922,38.823132558520065],[-76.910855760196625,38.822802781192316],[-76.910716038932279,38.822641722687173],[-76.909722703450683,38.822089109806008],[-76.909105245541809,38.821717512059074],[-76.908577183478471,38.821409369895811],[-76.908127132911019,38.821195513289695],[-76.907610801946944,38.820913003585815],[-76.907069424156134,38.820650347194729],[-76.906513769440522,38.820375639112896],[-76.905752846987525,38.820006428863323],[-76.905296848674581,38.819781449483735],[-76.905071217028038,38.819689968710435],[-76.904610305828797,38.819541228390278],[-76.90436319366718,38.819401054542887],[-76.904209037374528,38.819367530697782],[-76.903823809237977,38.819059342670243],[-76.903439855810831,38.818709910579955],[-76.902892104473068,38.818213642338705],[-76.902044877277476,38.817450339161745],[-76.901653216305164,38.817441859633604],[-76.901339132942496,38.817476959204114],[-76.900609087382449,38.817576381996183],[-76.89995581903311,38.8176808146589],[-76.899443696676144,38.817778717647684],[-76.898742140287027,38.817925921836014],[-76.898383398078323,38.818009793308512],[-76.897841253126245,38.818145365167531],[-76.897437591560077,38.818256938896369],[-76.896375914946589,38.818581669938908],[-76.895725214880628,38.818805005529242],[-76.895295804005158,38.818324002314647],[-76.895224247802872,38.818124980901146],[-76.894880166099597,38.818201543654766],[-76.894738120893621,38.817810820710982],[-76.89507141922023,38.817732442652677],[-76.894921494890895,38.817294619448688],[-76.894637198764713,38.817348680646887],[-76.893837559821293,38.817081812269066],[-76.893584269047153,38.817176604926154],[-76.89322040644133,38.816756105689066],[-76.892945270436101,38.816820124443034],[-76.892821220281874,38.816931047218233],[-76.892566935072722,38.817140941069901],[-76.892339505897311,38.81730447363951],[-76.891945172437033,38.817592006975012],[-76.891426796907382,38.817968162397413],[-76.891397790306868,38.818106622877956],[-76.891311667023942,38.818165759226865],[-76.891229059747033,38.818222479430013],[-76.891054922227525,38.818228880126306],[-76.890480836777215,38.818631350835084],[-76.889698515555835,38.819180371353568],[-76.889339359223797,38.819432193812105],[-76.889308053834455,38.819576067263604],[-76.889139657447927,38.819676239515353],[-76.889043438897858,38.819680041360435],[-76.888774229976875,38.820026786695095],[-76.888480583286906,38.820021199437718],[-76.887446405002592,38.820740340873321],[-76.887018520364762,38.821037872884354],[-76.886970623092139,38.82124816196346],[-76.886281393385346,38.821550898955799],[-76.885184412082864,38.822211010280768],[-76.884440961862168,38.822661850908474],[-76.884574131713137,38.822800307161955],[-76.885210551261011,38.822488413481089],[-76.885744509865887,38.822268849857217],[-76.88634978572118,38.822026242183483],[-76.887080211268582,38.82176137338714],[-76.888062978070877,38.822468812213138],[-76.888928268590206,38.823178377894209],[-76.889490397464087,38.823641720275951],[-76.889993158477466,38.824033480605266],[-76.889826778808754,38.824359815260706],[-76.890078999689379,38.824420205449101],[-76.890365000817965,38.8246878126605],[-76.890594353286417,38.824543819365012],[-76.890806313472652,38.824696517376864],[-76.891091074027827,38.824921537914854],[-76.891455576234137,38.825272613547945],[-76.891795807758115,38.82553687931749],[-76.892108989212232,38.825851976796294],[-76.892656761211256,38.826451892876307],[-76.892995228443993,38.826850689203766],[-76.893749786333188,38.827800465440831],[-76.894265324084856,38.82844935263234],[-76.894537440852403,38.828972451502935],[-76.89442749604477,38.829305581003425],[-76.894343099323848,38.829572808054891],[-76.894860015989465,38.82967830081499],[-76.89521840875355,38.829639357659453],[-76.89635321362104,38.830993769744751],[-76.896634344982459,38.831406108714688],[-76.897794581155665,38.831893025550805],[-76.898328096891106,38.832117301174293],[-76.898716554471093,38.832322144081971],[-76.899242389610876,38.832768130063322],[-76.899897431234592,38.833356896612365],[-76.900308861431355,38.833733532059163],[-76.899883829842864,38.833990199947308],[-76.899782215112879,38.834353736855618],[-76.900345737273753,38.834401447438267],[-76.900610827419143,38.834391968581961],[-76.901012464182685,38.834377605446264],[-76.901184892208207,38.834575220414926],[-76.901336402962343,38.834808738970608],[-76.901957353521027,38.835304035059366],[-76.901361416551438,38.835607713613967],[-76.899999788871312,38.835920241161773],[-76.90002365710842,38.836233947790376],[-76.900752976829708,38.836158525403796],[-76.901530738202695,38.83620671199607],[-76.902247643206763,38.8363213824356],[-76.902527110888286,38.836369144878972],[-76.902770260581192,38.836312313179626],[-76.902976935080289,38.836264957244033],[-76.903280942938736,38.836141635877922],[-76.904095499305768,38.835942690158483],[-76.904910278454992,38.835572635576369],[-76.905457461159173,38.835363956232378],[-76.905360586838924,38.835097720070237],[-76.905020203499674,38.835163982512036],[-76.904728471119583,38.835201767365632],[-76.904157414788415,38.835087232272478],[-76.903744302047116,38.835010847218129],[-76.903464775076813,38.835010616301574],[-76.902832696188383,38.83508613716937],[-76.902273485940867,38.835199738104407],[-76.901642176010327,38.834714419726069],[-76.901333021703607,38.834396526774192],[-76.901814019232589,38.834335969410262],[-76.901489572006483,38.834031435924729],[-76.901079535995052,38.834083397042896],[-76.900393520460327,38.833444637089492],[-76.90024349821465,38.833255983663769],[-76.901046495958909,38.832748531625505],[-76.90068884071168,38.832475681231713],[-76.900430540931524,38.832524639366419],[-76.900290514239984,38.832670842488824],[-76.899949461655837,38.833026897233836],[-76.899391700390865,38.832488272228993],[-76.899123625143773,38.832276094068888],[-76.898912002724103,38.83210874641744],[-76.898606341067207,38.831939944235366],[-76.898101934340232,38.83173618138683],[-76.897423069395188,38.831454582636049],[-76.896907656509356,38.8311699121153],[-76.896632883423507,38.830912333430703],[-76.896045171428639,38.830188324092788],[-76.896530298512999,38.829951325684114],[-76.895981531180652,38.829271585954992],[-76.895416522307983,38.828568356199661],[-76.89432507552597,38.827021569339593],[-76.894930411568396,38.826138962640293],[-76.894706188480214,38.825967121610596],[-76.894167985335628,38.825727010264508],[-76.893650038302354,38.825486068797282],[-76.892945334216478,38.825133864668253],[-76.892835468460603,38.82506167570066],[-76.892679053803334,38.825025047207468],[-76.892295995098181,38.824419918510095],[-76.891643793049099,38.824306942835406],[-76.891105685125922,38.823854505752877],[-76.890687637040458,38.823510974618841],[-76.890359810352251,38.823560605185406],[-76.890455271622557,38.823369802884763],[-76.890257690769076,38.82299396783867],[-76.890069072407186,38.822498841546562],[-76.891201769827035,38.821580987466241],[-76.891857531899589,38.821042297553902],[-76.892155131176807,38.820939488655689],[-76.893831023679283,38.820365457797998],[-76.895001614732763,38.819963882257007],[-76.896162681847599,38.819560234850059],[-76.89739920924292,38.819154787804358],[-76.898808670415292,38.818780366019311],[-76.900267974611182,38.818484288086829],[-76.901932025521589,38.818254846160059],[-76.902623749849923,38.818194016097031],[-76.903268125776265,38.818689238813143],[-76.903359887784219,38.818873017503613],[-76.90355315223276,38.819030632605489],[-76.903863354873423,38.81934030594757],[-76.903974169250247,38.819477255476194],[-76.90413417088044,38.819578383228837],[-76.904827066611915,38.819799849069007],[-76.905458544527406,38.820049443673469],[-76.906005743401252,38.820304859802192],[-76.906845143575779,38.820749732661731],[-76.907366803346108,38.820945744231508],[-76.908036133572722,38.821320765628023],[-76.908405392358475,38.8215296471136],[-76.908877614245441,38.821835980275218],[-76.908991941933351,38.821911743980024],[-76.909396206269079,38.822133164070252],[-76.910327608301756,38.822593813158264],[-76.910717107927482,38.822909100028212],[-76.911112436721083,38.823250995687523],[-76.911300635569731,38.823624223801708],[-76.911358475395929,38.823686046524415],[-76.911689792039013,38.823994855595515],[-76.910677990788429,38.824716915858637],[-76.910232666257684,38.82435258299158],[-76.909652558501705,38.824753880437363],[-76.908753347597241,38.82421200220265],[-76.907947525549744,38.823734805645792],[-76.906914653415839,38.82244248588281],[-76.904828166149812,38.824106486645441],[-76.90365867732919,38.825039711764127],[-76.903918206902972,38.827456356398443],[-76.903943855600971,38.827662946171451],[-76.904230393922106,38.828079935812696],[-76.904362254029394,38.828275815233361],[-76.904502203465825,38.828483708476185],[-76.904618958401613,38.828784897519832],[-76.904865457013884,38.82938894641142],[-76.904991651446679,38.82984990125366],[-76.90499936797498,38.829910489726394],[-76.905242935384479,38.830867753459593],[-76.905280099586093,38.831057807188863],[-76.905309763753408,38.831314672267688],[-76.905322290760054,38.83194275873965],[-76.905242948859211,38.833767513780529],[-76.905237446678086,38.833894278571535],[-76.906296933198917,38.833758874551144],[-76.908184986211921,38.833975540033421],[-76.912779090949158,38.833422504297367],[-76.915724693715262,38.833064582455698],[-76.916269525528335,38.83299887857266],[-76.916089027038296,38.832385310513324],[-76.916568777705677,38.832177554624216],[-76.917382419587739,38.831851246706194],[-76.91936428186925,38.830666478093846],[-76.92110534894222,38.829634794264003],[-76.922406244220909,38.828854891614519],[-76.923304137296853,38.828450967097751],[-76.925441534784966,38.827433644391547],[-76.926324620930075,38.82690911286565],[-76.926665648361393,38.826592874444053],[-76.925593489306848,38.825825351486657],[-76.92497424734384,38.825349672502924],[-76.924391397031314,38.824940552736386],[-76.923809982226615,38.824456966525268],[-76.923544216548109,38.824087729147585],[-76.923122008364572,38.823495173874022],[-76.922384061223283,38.822653650548602],[-76.922173487137542,38.822371710726152],[-76.921442184834419,38.821630634075504],[-76.920895912123612,38.821154982357918],[-76.920107277542442,38.82009931601641],[-76.919476174224414,38.819442990472666],[-76.918250343967472,38.818225412761777],[-76.917012318182259,38.817083859544844],[-76.915944231190906,38.816113515614347],[-76.915736533510696,38.815884983664475],[-76.914055569120137,38.814324758696422],[-76.912937503459631,38.813302684410836],[-76.911914737372683,38.81228251407817],[-76.912172963490988,38.812257006447759],[-76.912892894020942,38.811966760175316],[-76.913238897220594,38.811827263694788],[-76.912891407309147,38.811407091264265],[-76.911538107011708,38.811899720169755],[-76.91069745997558,38.810973302379693],[-76.911367758586067,38.810521634566648],[-76.912168100012039,38.810218391494942],[-76.912240988415874,38.810190246959031],[-76.911857383535065,38.809568665465441],[-76.911761590786412,38.809377568076059],[-76.911869821608462,38.809175121057777],[-76.912112169105825,38.809238154725136],[-76.912295005910536,38.809151470118138],[-76.911966273720523,38.808621833173127],[-76.911680590595552,38.808273999096834],[-76.911444489982685,38.808043503660087],[-76.911062162506198,38.807742882096363],[-76.9103912233969,38.807251829589795]]]},"properties":{"OBJECTID":5,"sitename":"Andrews Air Force Base - Branch Avenue Corridor","sitedesc":"Funding provided for infrastructure improvements for a coordinated State effort of making the zones the focus of BRAC growth. Area includes Branch Ave Metro Station and commercial corridors along Auth Rd, Suitland Pkwy, Branch Ave and Allentown Rd.","streetaddr":"Not Available","city":"Camp Springs","county":"Prince George's","state":"MD","zip":"20746","phonenumbe":"Not Available","tollfree_n":"Not Available","website":"http://www.choosemaryland.org/businessresources/pages/BRACRevitalization.aspx","latitude":"38.821503","longitude":"-76.908537","extent":"654.9 Acres","Shape.STArea()":4160572.11233084,"Shape.STLength()":27764.139741317613}},{"type":"Feature","id":7,"geometry":{"type":"Polygon","coordinates":[[[-76.796116458848942,39.122838306482755],[-76.795857000242066,39.122909998813974],[-76.795210735158676,39.123112940151181],[-76.794820441422246,39.123235199614484],[-76.794368167524453,39.123385474373869],[-76.793939559742839,39.12355668024815],[-76.793194876135232,39.123866341414349],[-76.792665930129658,39.124128970532013],[-76.792356990520275,39.124296364679616],[-76.792227828952093,39.124368454149973],[-76.792201998794425,39.124382069353601],[-76.792322297584008,39.124518885383189],[-76.792342861817502,39.124542224287033],[-76.792343491536514,39.124679633059131],[-76.792343479858417,39.12468365063129],[-76.792381529798902,39.124724698149599],[-76.792417521699079,39.124764135829423],[-76.79258009610426,39.12490825938162],[-76.792710939318624,39.124967149179525],[-76.792716105529848,39.124964747008597],[-76.792716419940191,39.124964880114064],[-76.792715999528639,39.124964999978701],[-76.792985999865365,39.125079000216118],[-76.792980999842513,39.125088999836919],[-76.79303400044428,39.125103999613842],[-76.793039000467132,39.125092999963599],[-76.79308299994976,39.125103999613842],[-76.794007999689384,39.125314000337283],[-76.794368999364409,39.125396000536057],[-76.794457000126272,39.125416000383069],[-76.794514000027675,39.125438000277967],[-76.794601999891228,39.125479999994823],[-76.794687000280049,39.125527000511099],[-76.79476500009784,39.125580999775522],[-76.794836000242967,39.125639000488057],[-76.794900999641982,39.125702999897136],[-76.794957999543385,39.12577100003319],[-76.795006999947191,39.125842000166621],[-76.795014999444788,39.12585599976245],[-76.795159000283149,39.126100000235482],[-76.795179000374631,39.126132999406344],[-76.795228999705031,39.126198999792273],[-76.795284999781529,39.126262000071264],[-76.795350000078869,39.126320999540368],[-76.795422000048873,39.126374000273302],[-76.795499000041787,39.126422000205828],[-76.795576000034671,39.126459999984021],[-76.795727000545725,39.126414000103189],[-76.79646600051251,39.124867000116204],[-76.796471999461986,39.124852999626967],[-76.796473000185202,39.12484800014844],[-76.796476000558272,39.124834999690691],[-76.796475999659947,39.124802999947548],[-76.79646600051251,39.124771999529109],[-76.796448000070839,39.124742999867237],[-76.796421000306665,39.124718999681399],[-76.796387999796409,39.124699999673723],[-76.796350999986487,39.124686999885562],[-76.796347999613431,39.124686999885562],[-76.796369999354738,39.124507999931765],[-76.79639100016945,39.12450900066861],[-76.796415999385502,39.124508999971709],[-76.796457000291682,39.124507999931765],[-76.796476000558272,39.124504999811911],[-76.796476999484838,39.124504999811911],[-76.796492000451778,39.12450200038873],[-76.796505999797176,39.124496999491541],[-76.796517999492735,39.124489999907382],[-76.796541999782178,39.124466000332248],[-76.796559000398929,39.124443000092974],[-76.796590000361078,39.12441099947479],[-76.79661299902898,39.124395000205602],[-76.796619999599983,39.124389999997724],[-76.796631000368961,39.124383000402929],[-76.796658000133135,39.124361000178538],[-76.79668900009527,39.12432599939563],[-76.796712000559822,39.124286999816917],[-76.796726999730097,39.124245000085587],[-76.796729000278248,39.124233999604293],[-76.796730999928059,39.124220000383005],[-76.796741999798726,39.124144000479923],[-76.796745999996674,39.124100999920749],[-76.796750000194635,39.123980999906955],[-76.796751000019569,39.123971000128876],[-76.796749999296324,39.12389899945471],[-76.796745999098363,39.123836999899297],[-76.796745999098363,39.123801000199876],[-76.796743000521957,39.123757000077582],[-76.796743000521957,39.123750999773733],[-76.796740000148901,39.123718000183857],[-76.796718000407594,39.123571000175801],[-76.796715999859472,39.123562000392901],[-76.79670599981371,39.123505000115074],[-76.796698999242722,39.123457000285512],[-76.796694000118151,39.123424999916317],[-76.796694000118151,39.123421000391836],[-76.796691999570015,39.123399999922732],[-76.796687000445459,39.123357999662538],[-76.796687000445459,39.123355000190571],[-76.796687000445459,39.123352999380991],[-76.796686000620539,39.123342000154189],[-76.796684999897309,39.123335999814984],[-76.796681999524267,39.123307000258798],[-76.796682000422578,39.123299999859476],[-76.796681000597658,39.123294999573815],[-76.796666058021231,39.123103740297772],[-76.796666338295609,39.123103421114898],[-76.796647049669829,39.122994909306975],[-76.796584898828584,39.122723201501891],[-76.796408378976935,39.122764679458641],[-76.796342100376947,39.122780415666504],[-76.796236999285355,39.122805000522376],[-76.796116458848942,39.122838306482755]]]},"properties":{"OBJECTID":7,"sitename":"Annapolis Junction Town Center","sitedesc":"Funding provided for infrastructure improvements for a coordinated State effort of making the zones the focus of BRAC growth. Area includes 11 acre mixed-use development to include retail, residential units, hotel units and office space.","streetaddr":"Not Available","city":"Savage","county":"Howard","state":"MD","zip":"20701","phonenumbe":"Not Available","tollfree_n":"Not Available","website":"http://www.choosemaryland.org/businessresources/pages/BRACRevitalization.aspx","latitude":"39.124496","longitude":"-76.795787","extent":"21.1 Acres","Shape.STArea()":142045.468497205,"Shape.STLength()":1653.2292915424216}},{"type":"Feature","id":8,"geometry":{"type":"Polygon","coordinates":[[[-76.292307281315516,39.416690500465876],[-76.292356814420287,39.416841060534352],[-76.292398233043087,39.416926137502841],[-76.292434736084644,39.417008214946769],[-76.29249804934588,39.417113560328893],[-76.292516123449388,39.417138036588796],[-76.292527258067352,39.417153098898318],[-76.292626587483255,39.417287013401967],[-76.292681011914723,39.417352394515881],[-76.292706795360019,39.417383914643572],[-76.292708968384687,39.417386571219424],[-76.292735471380524,39.41741894979112],[-76.293007640250366,39.417736826119707],[-76.293049187332258,39.417782885678875],[-76.293257415916798,39.417965771739226],[-76.293735789466851,39.418293361937074],[-76.293942666985203,39.418464754439874],[-76.294070822440247,39.418584307421632],[-76.294139399829064,39.418715601513199],[-76.294162862027648,39.418765234379514],[-76.29418078431587,39.418809110719927],[-76.294183054358598,39.418814619462751],[-76.29420024362156,39.418851122333386],[-76.294203119128781,39.418862907343495],[-76.294208864753344,39.418876588973028],[-76.294255630148726,39.419077260660515],[-76.294336147045939,39.41933372318416],[-76.294415860849313,39.419790951551953],[-76.294425153022601,39.419835058335707],[-76.294671315664985,39.421002352635661],[-76.294806283044835,39.421804355665323],[-76.294847122254282,39.422067756563798],[-76.294907363277233,39.422346896323582],[-76.295025736977166,39.422831438877722],[-76.295037773503665,39.422863490854574],[-76.29505025110295,39.422895442196776],[-76.295063167080116,39.422927287353019],[-76.295076521435121,39.42295902493553],[-76.295090311473047,39.422990649393114],[-76.295104535397243,39.423022157950186],[-76.295119193207753,39.423053547831117],[-76.295134281311249,39.42308481348477],[-76.295149799707801,39.423115952829377],[-76.295165744804095,39.423146961701676],[-76.295182115701834,39.423177837326037],[-76.295198912401005,39.423208575539107],[-76.295216129511758,39.423239172871419],[-76.29523376703402,39.423269625853528],[-76.295251822272931,39.423299931709956],[-76.295270293431798,39.423330085583345],[-76.295289179612325,39.423360084698238],[-76.295308477221255,39.423389925585155],[-76.295328183563669,39.423419606162639],[-76.295348297741171,39.423449121573292],[-76.29536881616059,39.423478469041662],[-76.295389738821868,39.423507643710536],[-76.295411061233452,39.423536644886177],[-76.295432781598706,39.423565467017383],[-76.295454897222683,39.423594107328732],[-76.295477405410438,39.42362256443252],[-76.295500304365348,39.42365083277771],[-76.295523591392453,39.423678909588745],[-76.295547262898509,39.423706792090208],[-76.295571317086882,39.423734477506621],[-76.295595751262596,39.423761961674749],[-76.295620560934125,39.423789243206876],[-76.295645746101428,39.423816315858026],[-76.295671301374625,39.4238431803224],[-76.295697225855406,39.423869831048776],[-76.295723515950513,39.42389626526176],[-76.295750167168364,39.42392248087981],[-76.295777178610649,39.423948473739735],[-76.295804545785785,39.423974241759943],[-76.296268544494652,39.424369623613089],[-76.296941178724879,39.424874841057338],[-76.299039160833289,39.426584256779336],[-76.299078298633574,39.426616048208032],[-76.300030664650023,39.427389390921185],[-76.301019139347645,39.428176558203226],[-76.301058999393433,39.428210978007534],[-76.301325342688642,39.428440962647898],[-76.301757780886632,39.428745807749785],[-76.301800165198372,39.428775685881298],[-76.302897511216841,39.429520057993656],[-76.303369498643519,39.429903062520204],[-76.303901679482465,39.430426896931372],[-76.304470154055508,39.431016190064724],[-76.304974873396205,39.431577192280386],[-76.305169117906729,39.431808590961232],[-76.30518962015644,39.431840397352467],[-76.305404148626081,39.432173167059972],[-76.30546564190054,39.432314883346478],[-76.305496606828399,39.432381950261785],[-76.305694689840124,39.432802512835863],[-76.305724226446642,39.432865035381376],[-76.305744804154855,39.432914715065515],[-76.305745141023095,39.432915527541269],[-76.30577591820304,39.432990582636883],[-76.305797340327629,39.43304362452897],[-76.305827150021997,39.433116856798691],[-76.305938907629866,39.433406674686644],[-76.306003411158855,39.433570874615469],[-76.306005528487972,39.433576337786853],[-76.30601804022325,39.433608622803277],[-76.306210037148929,39.434103926588357],[-76.306289892886113,39.434306912021555],[-76.306640846701328,39.435309280738757],[-76.307016739545446,39.436384719558717],[-76.307046127031626,39.436464395756964],[-76.307048110511786,39.43647384663668],[-76.307073139372235,39.436545832020883],[-76.307086145180918,39.436543784633123],[-76.308216132383549,39.436365817080002],[-76.308910673828606,39.436256505218175],[-76.308926818350898,39.436253988814862],[-76.311459015524918,39.435858949831818],[-76.311474925586921,39.435856512507492],[-76.312608578814235,39.435683054306786],[-76.314033543111762,39.435471319836701],[-76.314375282907093,39.435424344348931],[-76.314407620460699,39.435419392657387],[-76.316848385308447,39.435045297828587],[-76.316864081571424,39.435042899329112],[-76.320013362056827,39.434561686651506],[-76.320028596585715,39.434559457426111],[-76.322280507713003,39.434229977404442],[-76.323401335692992,39.4340588470806],[-76.324050574199973,39.433959465718694],[-76.324132405332477,39.433947087963354],[-76.324941455925114,39.433824697238521],[-76.326515716629615,39.433590649295482],[-76.326934070142258,39.433522307600157],[-76.32719742204759,39.433480051584169],[-76.327673546216147,39.43340611407541],[-76.32771099967529,39.433401658325877],[-76.327712078551954,39.433401498052127],[-76.328156385291479,39.43333489767582],[-76.328450195474815,39.433293142489276],[-76.329801971331207,39.433090421226503],[-76.330038966666109,39.433055619451096],[-76.330174981481591,39.433033300346381],[-76.330529516879821,39.432979461235682],[-76.330937544258276,39.432916328915695],[-76.331100397141199,39.432892810826594],[-76.334164497574733,39.432438860056159],[-76.334182538440572,39.432436196421811],[-76.335310511620349,39.432269605631404],[-76.335237493859111,39.431979701834173],[-76.335234835744174,39.431969147832824],[-76.335034750387692,39.431174157239894],[-76.335197457743519,39.431151137439606],[-76.33583605750259,39.430579058578914],[-76.335547422513599,39.430314480456779],[-76.334955080601759,39.430974471650288],[-76.334722790642331,39.430805304562746],[-76.33444015190787,39.43059946829041],[-76.333879408236157,39.431125743282074],[-76.333279728885088,39.430850568658578],[-76.333353420382792,39.430747022382022],[-76.33379861825108,39.430181406959505],[-76.333572170934261,39.430073910937054],[-76.333053970576088,39.430731942194591],[-76.332600628581432,39.430517630272277],[-76.332936095441127,39.430091584911239],[-76.330992840953911,39.430385816511453],[-76.33043711527138,39.430469996445247],[-76.329603081632357,39.430596344560698],[-76.328612165313814,39.430746329223567],[-76.328601318156757,39.430747972959665],[-76.327987742766567,39.430840915799131],[-76.327957164114295,39.430845545869104],[-76.327397882001549,39.431489591641309],[-76.327213520755791,39.431517708312555],[-76.326967937526788,39.43156177575819],[-76.324182655292816,39.431975480511348],[-76.321523501914641,39.432385385443808],[-76.321525025457376,39.432411132998453],[-76.321545251025995,39.432748082401659],[-76.321466869424199,39.432938095768833],[-76.321255922537603,39.432968967748998],[-76.321249752009905,39.432969869728225],[-76.320491461620705,39.433080723578492],[-76.320379339296835,39.433097235320403],[-76.319476604301514,39.433229464411241],[-76.319302012234473,39.433255036809463],[-76.319291432775373,39.433248636945926],[-76.318761066533312,39.432984392285761],[-76.318740254364798,39.432975986534643],[-76.31871965150377,39.43296727827255],[-76.318699262441768,39.432958269580837],[-76.318679096161929,39.432948964622391],[-76.318659159850839,39.432939367560053],[-76.318639460694982,39.432929480475266],[-76.318620004982549,39.432919306143134],[-76.318600799900111,39.432908850114252],[-76.318581853532436,39.432898115857625],[-76.318563170371164,39.43288710614847],[-76.318544758501105,39.432875824455749],[-76.318526624210449,39.432864277023846],[-76.318508772889132,39.432852464546471],[-76.318491212621964,39.432840395349444],[-76.318473948798825,39.43282807012649],[-76.318456987707947,39.432815495815802],[-76.31844100308578,39.432803200423201],[-76.318425309517764,39.432790683002217],[-76.318409910597168,39.432777947021862],[-76.318394811713873,39.432764998032766],[-76.318380015562838,39.432751839503851],[-76.318365529330549,39.432738474904191],[-76.318351357508618,39.432724909784369],[-76.318337504588641,39.432711147613375],[-76.318324297557325,39.43269753461378],[-76.318311404038056,39.43268374260257],[-76.318298825827441,39.432669777130357],[-76.31828656741709,39.432655640972371],[-76.318274632400232,39.432641340372989],[-76.318263024370111,39.432626877413597],[-76.318251747818366,39.432612259032474],[-76.318240804541574,39.432597487310979],[-76.31823024394707,39.432582631632471],[-76.318109981090103,39.432443715516456],[-76.318074461703773,39.432459289344074],[-76.318038759959435,39.432474611999901],[-76.318002880348672,39.432489682790298],[-76.317966825566415,39.432504498940098],[-76.31793059920598,39.432519060449366],[-76.317894202165604,39.432533366624561],[-76.317857639835211,39.432547415384214],[-76.317816638030706,39.432562790058277],[-76.317775437698529,39.432577841402228],[-76.317734041533583,39.432592567334844],[-76.317692455824144,39.432606967162492],[-76.3176506832651,39.432621038803823],[-76.317608729246402,39.432634781565262],[-76.317566596462953,39.432648192671607],[-76.317524291202957,39.432661271429318],[-76.317109240795602,39.432770952500434],[-76.317094918955021,39.432775229975441],[-76.317091090335296,39.432776373410753],[-76.316785937124862,39.432837330002044],[-76.31650818522553,39.432881248827066],[-76.316433750821076,39.432889735767809],[-76.315502772793224,39.432952238807779],[-76.314475970575714,39.433007059014855],[-76.314450011958954,39.433008440429973],[-76.314355166034616,39.433023159333274],[-76.313925932127248,39.433034480550418],[-76.313579436650812,39.433072366407032],[-76.313260096347079,39.433118693363191],[-76.312894511670848,39.433186576140336],[-76.312380219882471,39.433294327545681],[-76.311757205893599,39.43345602164225],[-76.311733748186583,39.433462790601752],[-76.311710145850796,39.433469252889843],[-76.311686406971106,39.433475407812779],[-76.311662537835687,39.433481253289216],[-76.311638547427705,39.433486787931578],[-76.311614440238756,39.433492009658423],[-76.311590222557015,39.433496917082188],[-76.311565903365633,39.433501509509121],[-76.311541487156205,39.433505784857807],[-76.311516982911897,39.433509741740643],[-76.311492396022558,39.433513380157741],[-76.311479024599564,39.433515220874753],[-76.311465631616997,39.433516966537731],[-76.311441378002641,39.433519881989142],[-76.311417065997787,39.433522487300735],[-76.311392700992343,39.433524782472681],[-76.31136829196943,39.433526767504937],[-76.311343844318984,39.433528440316046],[-76.311319364329179,39.433529800906044],[-76.311294858288221,39.43353085066267],[-76.311269634493357,39.433531603462299],[-76.311244399918721,39.43353202600148],[-76.311219159055852,39.433532116892486],[-76.311193918192998,39.433531877522995],[-76.31116868810993,39.43353130719921],[-76.31114347329823,39.433530406614921],[-76.31111828184271,39.433529175076274],[-76.311093120929925,39.433527613277136],[-76.311067997746363,39.433525722605054],[-76.31104291858027,39.433523502366214],[-76.311017892414768,39.433520954642049],[-76.310992923741438,39.433518078044905],[-76.310968022441756,39.433514875350028],[-76.310943195702265,39.433511345863536],[-76.31091844801449,39.433507491666845],[-76.310893788361639,39.433503314147565],[-76.310869223031872,39.433498813305647],[-76.310843649792361,39.433493764341698],[-76.310818194232155,39.433488367077246],[-76.310792866232731,39.433482620124572],[-76.3107676738789,39.433476527646512],[-76.310742624357204,39.433470091030635],[-76.310717723955833,39.433463310970659],[-76.310692982556276,39.433456191629489],[-76.310668408243359,39.433448735088369],[-76.310644007305299,39.433440941347307],[-76.310622231244494,39.43343208397085],[-76.310600656406322,39.433422933798781],[-76.310579290875609,39.433413492218747],[-76.310558140940557,39.433403764781154],[-76.310537213787697,39.433393752179761],[-76.310516513010285,39.433383457883551],[-76.31049604848981,39.433372886055366],[-76.310475823819502,39.433362038776551],[-76.310455847084199,39.433350920209946],[-76.310436122775528,39.43333953313072],[-76.310416656283309,39.433327881007834],[-76.310397455692424,39.433315968004194],[-76.310378525494443,39.433303797588735],[-76.310363577528122,39.433293875864308],[-76.310348810123159,39.433283793864447],[-76.310334225974529,39.433273552976651],[-76.310319826878839,39.433263155282425],[-76.310301418602023,39.43324942999066],[-76.310283335515351,39.433235449367636],[-76.310265580313768,39.433221216188542],[-76.310248161082086,39.433206736697649],[-76.31023108231193,39.433192015057827],[-76.310214350291432,39.43317705612565],[-76.310197969512231,39.433161864064004],[-76.310189228904505,39.433153524247977],[-76.310180595196314,39.43314511851721],[-76.310165005832872,39.433129499744055],[-76.310149782982066,39.43311366449278],[-76.310134929338844,39.433097619007761],[-76.310120453886356,39.433081368145686],[-76.310106358421237,39.433064917456981],[-76.310092648333367,39.433048272492144],[-76.31007932721603,39.433031438107911],[-76.310067155043924,39.433015431458408],[-76.310055335011413,39.432999267305917],[-76.310043870711752,39.43298294981318],[-76.310032764839903,39.43296648314314],[-76.310022022785731,39.432949873540146],[-76.310011644549249,39.432933123779456],[-76.310001635520365,39.432916240105357],[-76.309991997495686,39.432899227374669],[-76.309986402788098,39.432884880338605],[-76.309981144050411,39.432870456284363],[-76.309977069292287,39.432858534182692],[-76.309973224502869,39.432846565592278],[-76.309969607885535,39.432834553982239],[-76.309965536720668,39.432819941889171],[-76.309961805118974,39.432805275674177],[-76.309958413978777,39.432790558806325],[-76.309955366893334,39.432775797530084],[-76.309952662964321,39.432760995314652],[-76.309950303090091,39.432746157710639],[-76.309948289965547,39.432731290268677],[-76.309946447520872,39.432714619552293],[-76.30994503896251,39.432697923854043],[-76.309944065188759,39.432681209418234],[-76.309943526199575,39.432664483183252],[-76.309943421995001,39.43264775139361],[-76.30994375526997,39.432631022375276],[-76.309944523329534,39.432614300985065],[-76.309945725275398,39.43259759554909],[-76.309947363802465,39.432580913005552],[-76.30994943441921,39.43256425890528],[-76.3099519380239,39.43254764018657],[-76.309954874616565,39.432531064481644],[-76.309956954216446,39.432515272805951],[-76.309959451532947,39.432499517899942],[-76.30996236566773,39.432483806008122],[-76.309965694824172,39.432468143375083],[-76.309969438103948,39.43245253763299],[-76.309973593710438,39.432436995026414],[-76.309978159847049,39.432421521799967],[-76.309983133818761,39.432406124198174],[-76.309988515625633,39.432390808465605],[-76.309994300776069,39.432375582234542],[-76.31000048657512,39.432360451055722],[-76.310007073921071,39.432345421173736],[-76.310014056525787,39.432330500220772],[-76.310021433490903,39.432315693053894],[-76.310029199426538,39.432301006611446],[-76.310035415768311,39.432289832368554],[-76.310041858485533,39.432278736527486],[-76.310048524883243,39.432267720475878],[-76.310057534985532,39.432253506526507],[-76.310066919685312,39.43223943897398],[-76.31007667269435,39.432225523369034],[-76.31008679221604,39.432211765262444],[-76.310097271063825,39.432198171592702],[-76.310108109237731,39.432184746522942],[-76.310119297754596,39.432171496297819],[-76.310130834817784,39.432158426468121],[-76.310142715037415,39.432145542584642],[-76.310154932125286,39.432132850892039],[-76.310169575562725,39.432114363562846],[-76.310184608869008,39.432096065646803],[-76.31020002755254,39.432077961307023],[-76.310215827121766,39.432060056094407],[-76.310232003983387,39.432042354172154],[-76.310248552747552,39.432024861091087],[-76.310265470719315,39.432007580320608],[-76.310282750712119,39.431990516717697],[-76.310296705141738,39.431977195683949],[-76.310227108165094,39.431946196291506],[-76.30980537249539,39.431758349170025],[-76.309626402039655,39.431606326785065],[-76.309466442630281,39.43147045400864],[-76.309238721502396,39.431277018748538],[-76.309258016416379,39.431139950523018],[-76.309281723855023,39.430971541521522],[-76.307534857258602,39.43138822499062],[-76.307251198936271,39.4316587702505],[-76.306866463076489,39.431482746861057],[-76.307012913620625,39.431302947806799],[-76.307808660163928,39.430382003773254],[-76.308006812345937,39.430144703946993],[-76.308135900252267,39.430077137381346],[-76.308250050972049,39.430017390547803],[-76.308739208797078,39.42943474313627],[-76.309056389550861,39.429025554264946],[-76.309349596964637,39.428604998729405],[-76.309569976161725,39.428241927714872],[-76.30966835246511,39.428036956770242],[-76.309860071811357,39.427649408848069],[-76.310030189369968,39.427254248911417],[-76.310166052370178,39.42690765492442],[-76.310253701890773,39.426575342325791],[-76.310317046593028,39.426259888453259],[-76.310397768306146,39.425892211598118],[-76.310429558785742,39.425612378256382],[-76.310429974705713,39.425608561093547],[-76.310445268523424,39.425473870831745],[-76.310479461996408,39.425151436116309],[-76.310490041455509,39.424918349942821],[-76.310494731559587,39.424818308124117],[-76.310495820317726,39.424814694233795],[-76.310465880367616,39.4244329316044],[-76.310426625786334,39.424215637975905],[-76.310371035341603,39.423924787470696],[-76.310315967716363,39.423527496190324],[-76.30985616952978,39.421708906744477],[-76.30963089541271,39.420894453147419],[-76.309446261977428,39.420366490214583],[-76.309218223744239,39.419838079147645],[-76.309023937911221,39.419436257963902],[-76.308732077970348,39.418905157650286],[-76.308730089100308,39.418901539289564],[-76.308333936551605,39.418334795779444],[-76.307942492073266,39.417822753509625],[-76.307915248865655,39.417787116883218],[-76.307878062206157,39.417743248227296],[-76.307813529931082,39.417660327072007],[-76.307586576862761,39.417386067386076],[-76.307545124103967,39.417337659810734],[-76.307975926469851,39.417256173337329],[-76.308075518193803,39.417237698717038],[-76.308582982786021,39.417147785034715],[-76.31341639152842,39.416391632755875],[-76.313379760926082,39.41627341612066],[-76.31335552168477,39.416179185225211],[-76.313329240572813,39.416061102171433],[-76.313310903262902,39.415942118799997],[-76.313300556467468,39.415822558510804],[-76.313298232525838,39.415702741235748],[-76.313303934132946,39.41558299315512],[-76.313306263464469,39.415562725480449],[-76.313317648712385,39.415463635593255],[-76.313339335839984,39.415344992652926],[-76.313368938921855,39.415227382886847],[-76.313406379804562,39.415111124849901],[-76.313451554283589,39.41499653293495],[-76.31350434018799,39.414883915290815],[-76.313564597380619,39.414773575904007],[-76.313864132527272,39.414262476323039],[-76.313937311086946,39.414129211162162],[-76.314002169450461,39.413993377181917],[-76.314058554904207,39.413855286676466],[-76.314106338989134,39.413715258882519],[-76.314145410314083,39.413573613733092],[-76.314175682640851,39.413430678798001],[-76.314188960639072,39.413341400097067],[-76.31419708410418,39.413286781649653],[-76.3142095635001,39.413142254721301],[-76.314213095675811,39.412997429754888],[-76.31420767164812,39.412852639883226],[-76.314193302196827,39.412708218241846],[-76.314170022356237,39.412564497274893],[-76.314137885126954,39.412421808041394],[-76.313865471017039,39.411362757111071],[-76.313822274628293,39.411194820158642],[-76.313811797577145,39.411165511937476],[-76.313795897396616,39.411137711869316],[-76.313896672201821,39.410993049310889],[-76.313733279431403,39.41035781809952],[-76.313625968484203,39.409940616745828],[-76.314939577619114,39.409322125139639],[-76.316495425555232,39.409372301205991],[-76.316668783337079,39.406074995502479],[-76.313203415347601,39.407537395898302],[-76.312681240842622,39.40775774133715],[-76.310477949233459,39.408687578330358],[-76.306707343591924,39.410278732536469],[-76.305921008697837,39.410613679030909],[-76.305382187512322,39.410836314138443],[-76.305206483330949,39.410933427702858],[-76.304932398354623,39.411047633464612],[-76.304401105051198,39.41126893739402],[-76.304174993704294,39.411363177008433],[-76.304115032955707,39.411387017459866],[-76.303709526249932,39.411548488935011],[-76.302942921952763,39.411853502314145],[-76.302160219845703,39.412220188574189],[-76.301295772844441,39.412575746166141],[-76.301066140999936,39.412667042011378],[-76.301012503492629,39.412709269700116],[-76.300403103471879,39.412965714009736],[-76.299287874691046,39.413435005347829],[-76.299156091838867,39.41348498690386],[-76.298896301753643,39.413583305767517],[-76.298585421783287,39.413702769263836],[-76.298508233144162,39.413732430369478],[-76.298532687082826,39.413772091616288],[-76.298149544834374,39.413914228422577],[-76.297894107985016,39.414008989139852],[-76.29784460272802,39.413928692489606],[-76.29769077881204,39.413976441725737],[-76.297157685284773,39.414197411559016],[-76.297112245802765,39.414215575371429],[-76.29678011259108,39.414348333735859],[-76.296661479278029,39.414399274459925],[-76.296594355363368,39.414428057340636],[-76.296262477273217,39.414570369088977],[-76.296255369802694,39.414573242998223],[-76.295973284430431,39.414688066714966],[-76.295672090993776,39.414811355788821],[-76.295569562677144,39.414853323312876],[-76.295632768140507,39.414942564683223],[-76.295308594900561,39.415076375861887],[-76.295209746981655,39.415117177987163],[-76.295000431435611,39.415203577060915],[-76.294844206322864,39.41526806208455],[-76.294682134075941,39.415334960106598],[-76.294639615016905,39.415265147951558],[-76.294639412895975,39.415264833566638],[-76.294000448420903,39.415533914614073],[-76.294000394521973,39.415533956948295],[-76.294000248994919,39.415533998588501],[-76.293753211393451,39.415637892956752],[-76.293580739350489,39.415802983518866],[-76.293185388098991,39.416120621540855],[-76.293135307021913,39.416173515266678],[-76.29311114593402,39.416200481224386],[-76.293087424122334,39.416227793476125],[-76.293064143383418,39.416255279910246],[-76.293050196140314,39.416272611084786],[-76.292901461180406,39.416212937083756],[-76.292811874892067,39.416358123188253],[-76.292949438403113,39.41640904301196],[-76.292937664184677,39.416426455345714],[-76.292922949780333,39.416449374522841],[-76.292798516943805,39.416475494394682],[-76.292461176198415,39.416628413809391],[-76.29238871179939,39.416657077097007],[-76.292307281315516,39.416690500465876]]]},"properties":{"OBJECTID":8,"sitename":"Edgewood","sitedesc":"Funding provided for infrastructure improvements for a coordinated State effort of making the zones the focus of BRAC growth. The area is close proximity to Aberdeen Proving Ground South and the MARC train station.","streetaddr":"Not Available","city":"Edgewood","county":"Harford","state":"MD","zip":"21040","phonenumbe":"Not Available","tollfree_n":"Not Available","website":"http://www.choosemaryland.org/businessresources/pages/BRACRevitalization.aspx","latitude":"39.421917","longitude":"-76.307331","extent":"854.8 Acres","Shape.STArea()":5804840.5186371449,"Shape.STLength()":19026.307090358867}}]}